QIANFAN-49              
1 62250U 24232P   26027.76012138  .00000056  00000+0  67719-4 0  9997
2 62250  89.0002  36.5865 0015964  65.5853 294.6962 13.50984356 74054
QIANFAN-50              
1 62251U 24232Q   26027.78488575  .00000057  00000+0  70188-4 0  9997
2 62251  89.0008  36.5946 0017647  66.4336 293.8666 13.50981178 74081
QIANFAN-51              
1 62252U 24232R   26027.76837456  .00000048  00000+0  55574-4 0  9994
2 62252  89.0002  36.5873 0015182  70.1985 290.0801 13.50983767 74074
QIANFAN-52              
1 62253U 24232S   26027.79722637  .00000047  00000+0  53928-4 0  9992
2 62253  88.9998  36.4562 0017079  62.8700 297.4190 13.50994295 74161
QIANFAN-53              
1 62254U 24232T   26027.77657081  .00000058  00000+0  71406-4 0  9994
2 62254  89.0005  36.5662 0015975  64.1217 296.1579 13.50984523 74122
QIANFAN-54              
1 62255U 24232U   26027.74363370  .00000057  00000+0  70186-4 0  9990
2 62255  88.9997  36.2439 0004056  96.5786 263.5827 13.50984962105629
QIANFAN-55              
1 62785U 25016A   26027.76956313  .00000142  00000+0  20123-3 0  9996
2 62785  88.9753  98.4595 0016823 208.9784 151.0435 13.50991244 53407
QIANFAN-56              
1 62786U 25016B   26027.78599654  .00000130  00000+0  18291-3 0  9990
2 62786  88.9726  98.2818 0015399 210.7881 149.2368 13.50993538 53457
